OPTICUBE 04             
1 41851U 16067D   26068.51005515  .00003771  00000+0  24102-3 0  9992
2 41851  98.0811 275.5525 0017089  94.6311 265.6869 15.09188144510131
STARLINK-4285           
1 52991U 22076F   26068.80623000  .00000475  00000+0  47943-4 0  9990
2 52991  53.2170 103.5964 0001279  90.2691 269.8448 15.08837128202727
