[{"OBJECT_NAME":"OPTICUBE 04","OBJECT_ID":"2016-067D","EPOCH":"2026-03-09T12:14:28.758048","MEAN_MOTION":15.09188378,"ECCENTRICITY":0.00170901,"INCLINATION":98.0811,"RA_OF_ASC_NODE":275.5525,"ARG_OF_PERICENTER":94.6311,"MEAN_ANOMALY":265.6869,"EPHEMERIS_TYPE":0,"CLASSIFICATION_TYPE":"U","NORAD_CAT_ID":41851,"ELEMENT_SET_NO":999,"REV_AT_EPOCH":51013,"BSTAR":0.00024566739,"MEAN_MOTION_DOT":3.845e-5,"MEAN_MOTION_DDOT":0},{"OBJECT_NAME":"STARLINK-4285","OBJECT_ID":"2022-076F","EPOCH":"2026-03-09T19:20:58.272000","MEAN_MOTION":15.08837128,"ECCENTRICITY":0.0001279,"INCLINATION":53.217,"RA_OF_ASC_NODE":103.5964,"ARG_OF_PERICENTER":90.2691,"MEAN_ANOMALY":269.8448,"EPHEMERIS_TYPE":0,"CLASSIFICATION_TYPE":"U","NORAD_CAT_ID":52991,"ELEMENT_SET_NO":999,"REV_AT_EPOCH":20272,"BSTAR":4.7943329e-5,"MEAN_MOTION_DOT":4.75e-6,"MEAN_MOTION_DDOT":0}]
